{
  "links" : {
    "next" : "https://api.nasa.gov/neo/rest/v1/feed?start_date=2010-04-23&end_date=2010-04-23&detailed=true&api_key=t0TVs3DtDT2H8Oy2Zy8m2eVrNsAVKAexjcZXUckd",
    "prev" : "https://api.nasa.gov/neo/rest/v1/feed?start_date=2010-04-21&end_date=2010-04-21&detailed=true&api_key=t0TVs3DtDT2H8Oy2Zy8m2eVrNsAVKAexjcZXUckd",
    "self" : "https://api.nasa.gov/neo/rest/v1/feed?start_date=2010-04-22&end_date=2010-04-22&detailed=true&api_key=t0TVs3DtDT2H8Oy2Zy8m2eVrNsAVKAexjcZXUckd"
  },
  "element_count" : 6,
  "near_earth_objects" : {
    "2010-04-22" : [ {
      "links" : {
        "self" : "https://api.nasa.gov/neo/rest/v1/neo/3515659?api_key=t0TVs3DtDT2H8Oy2Zy8m2eVrNsAVKAexjcZXUckd"
      },
      "neo_reference_id" : "3515659",
      "name" : "(2010 GP33)",
      "nasa_jpl_url" : "http://ssd.jpl.nasa.gov/sbdb.cgi?sstr=3515659",
      "absolute_magnitude_h" : 25.8,
      "estimated_diameter" : {
        "kilometers" : {
          "estimated_diameter_min" : 0.0183888672,
          "estimated_diameter_max" : 0.0411187571
        },
        "meters" : {
          "estimated_diameter_min" : 18.388867207,
          "estimated_diameter_max" : 41.1187571041
        },
        "miles" : {
          "estimated_diameter_min" : 0.0114263088,
          "estimated_diameter_max" : 0.0255500032
        },
        "feet" : {
          "estimated_diameter_min" : 60.3309310875,
          "estimated_diameter_max" : 134.9040630575
        }
      },
      "is_potentially_hazardous_asteroid" : false,
      "close_approach_data" : [ {
        "close_approach_date" : "2010-04-22",
        "epoch_date_close_approach" : 1271919600000,
        "relative_velocity" : {
          "kilometers_per_second" : "6.8970764627",
          "kilometers_per_hour" : "24829.4752657802",
          "miles_per_hour" : "15428.0703394511"
        },
        "miss_distance" : {
          "astronomical" : "0.0207892774",
          "lunar" : "8.0870285034",
          "kilometers" : "3110031.5",
          "miles" : "1932484"
        },
        "orbiting_body" : "Earth"
      } ],
      "orbital_data" : {
        "orbit_id" : "13",
        "orbit_determination_date" : "2017-04-06 08:57:50",
        "orbit_uncertainty" : "7",
        "minimum_orbit_intersection" : ".0178331",
        "jupiter_tisserand_invariant" : "4.422",
        "epoch_osculation" : "2458000.5",
        "eccentricity" : ".356990419576194",
        "semi_major_axis" : "1.523394890980387",
        "inclination" : "5.42681367847524",
        "ascending_node_longitude" : "21.02458488337446",
        "orbital_period" : "686.7792561377793",
        "perihelion_distance" : ".9795575096690685",
        "perihelion_argument" : "218.1154707309938",
        "aphelion_distance" : "2.067232272291706",
        "perihelion_time" : "2458080.248749971319",
        "mean_anomaly" : "318.1968300103763",
        "mean_motion" : ".5241858963890692",
        "equinox" : "J2000"
      }
    }, {
      "links" : {
        "self" : "https://api.nasa.gov/neo/rest/v1/neo/3516488?api_key=t0TVs3DtDT2H8Oy2Zy8m2eVrNsAVKAexjcZXUckd"
      },
      "neo_reference_id" : "3516488",
      "name" : "(2010 GO67)",
      "nasa_jpl_url" : "http://ssd.jpl.nasa.gov/sbdb.cgi?sstr=3516488",
      "absolute_magnitude_h" : 25.0,
      "estimated_diameter" : {
        "kilometers" : {
          "estimated_diameter_min" : 0.02658,
          "estimated_diameter_max" : 0.0594346868
        },
        "meters" : {
          "estimated_diameter_min" : 26.58,
          "estimated_diameter_max" : 59.4346868419
        },
        "miles" : {
          "estimated_diameter_min" : 0.0165160412,
          "estimated_diameter_max" : 0.0369309908
        },
        "feet" : {
          "estimated_diameter_min" : 87.2047272,
          "estimated_diameter_max" : 194.9956979785
        }
      },
      "is_potentially_hazardous_asteroid" : false,
      "close_approach_data" : [ {
        "close_approach_date" : "2010-04-22",
        "epoch_date_close_approach" : 1271919600000,
        "relative_velocity" : {
          "kilometers_per_second" : "25.0958449289",
          "kilometers_per_hour" : "90345.0417439356",
          "miles_per_hour" : "56136.8955213915"
        },
        "miss_distance" : {
          "astronomical" : "0.0191952367",
          "lunar" : "7.4669470787",
          "kilometers" : "2871566.5",
          "miles" : "1784308.75"
        },
        "orbiting_body" : "Earth"
      } ],
      "orbital_data" : {
        "orbit_id" : "11",
        "orbit_determination_date" : "2017-04-06 08:57:46",
        "orbit_uncertainty" : "9",
        "minimum_orbit_intersection" : ".0172711",
        "jupiter_tisserand_invariant" : "4.235",
        "epoch_osculation" : "2455304.5",
        "eccentricity" : ".7431007680488934",
        "semi_major_axis" : "1.47584912003747",
        "inclination" : "5.228617340458554",
        "ascending_node_longitude" : "200.9365520183357",
        "orbital_period" : "654.8794580419253",
        "perihelion_distance" : ".3791445054133427",
        "perihelion_argument" : "128.3571193640901",
        "aphelion_distance" : "2.572553734661598",
        "perihelion_time" : "2455356.735114465023",
        "mean_anomaly" : "331.2853396506989",
        "mean_motion" : ".5497194874250473",
        "equinox" : "J2000"
      }
    }, {
      "links" : {
        "self" : "https://api.nasa.gov/neo/rest/v1/neo/3520756?api_key=t0TVs3DtDT2H8Oy2Zy8m2eVrNsAVKAexjcZXUckd"
      },
      "neo_reference_id" : "3520756",
      "name" : "(2010 JV39)",
      "nasa_jpl_url" : "http://ssd.jpl.nasa.gov/sbdb.cgi?sstr=3520756",
      "absolute_magnitude_h" : 23.6,
      "estimated_diameter" : {
        "kilometers" : {
          "estimated_diameter_min" : 0.0506471459,
          "estimated_diameter_max" : 0.1132504611
        },
        "meters" : {
          "estimated_diameter_min" : 50.6471458835,
          "estimated_diameter_max" : 113.2504610618
        },
        "miles" : {
          "estimated_diameter_min" : 0.0314706677,
          "estimated_diameter_max" : 0.0703705522
        },
        "feet" : {
          "estimated_diameter_min" : 166.1651821003,
          "estimated_diameter_max" : 371.5566426699
        }
      },
      "is_potentially_hazardous_asteroid" : false,
      "close_approach_data" : [ {
        "close_approach_date" : "2010-04-22",
        "epoch_date_close_approach" : 1271919600000,
        "relative_velocity" : {
          "kilometers_per_second" : "4.9918045658",
          "kilometers_per_hour" : "17970.4964370213",
          "miles_per_hour" : "11166.1676333258"
        },
        "miss_distance" : {
          "astronomical" : "0.1072877578",
          "lunar" : "41.7349357605",
          "kilometers" : "16050020",
          "miles" : "9973020"
        },
        "orbiting_body" : "Earth"
      } ],
      "orbital_data" : {
        "orbit_id" : "10",
        "orbit_determination_date" : "2017-04-06 08:57:34",
        "orbit_uncertainty" : "7",
        "minimum_orbit_intersection" : ".107505",
        "jupiter_tisserand_invariant" : "3.809",
        "epoch_osculation" : "2458000.5",
        "eccentricity" : ".4414868411597603",
        "semi_major_axis" : "1.908913298328455",
        "inclination" : "4.841431521254111",
        "ascending_node_longitude" : "121.2768013369267",
        "orbital_period" : "963.3358709344636",
        "perihelion_distance" : "1.066153196201566",
        "perihelion_argument" : "87.6312505579409",
        "aphelion_distance" : "2.751673400455344",
        "perihelion_time" : "2458197.809816559424",
        "mean_anomaly" : "286.265037870447",
        "mean_motion" : ".3737014377454767",
        "equinox" : "J2000"
      }
    } ]
  }
}